TIGER-6                 
1 58272U 23174S   26068.73366727  .00113437  00000+0  98002-3 0  9994
2 58272  97.3904 161.9275 0003121 155.9023 204.2385 15.68857868130641
STARLINK-11080 [DTC]    
1 60727U 24152H   26068.41902606  .00001602  00000+0  18077-4 0  9991
2 60727  53.1584 117.5107 0001248  85.1052 275.0108 15.69710300 88920
