[{"OBJECT_NAME":"TIGER-6","OBJECT_ID":"2023-174S","EPOCH":"2026-03-09T17:36:28.852992","MEAN_MOTION":15.68857868,"ECCENTRICITY":0.0003121,"INCLINATION":97.3904,"RA_OF_ASC_NODE":161.9275,"ARG_OF_PERICENTER":155.9023,"MEAN_ANOMALY":204.2385,"EPHEMERIS_TYPE":0,"CLASSIFICATION_TYPE":"U","NORAD_CAT_ID":58272,"ELEMENT_SET_NO":999,"REV_AT_EPOCH":13064,"BSTAR":0.00098002434,"MEAN_MOTION_DOT":0.00113437,"MEAN_MOTION_DDOT":0},{"OBJECT_NAME":"STARLINK-11080 [DTC]","OBJECT_ID":"2024-152H","EPOCH":"2026-03-09T10:03:23.851584","MEAN_MOTION":15.697103,"ECCENTRICITY":0.00012488,"INCLINATION":53.1584,"RA_OF_ASC_NODE":117.5107,"ARG_OF_PERICENTER":85.1052,"MEAN_ANOMALY":275.0108,"EPHEMERIS_TYPE":0,"CLASSIFICATION_TYPE":"U","NORAD_CAT_ID":60727,"ELEMENT_SET_NO":999,"REV_AT_EPOCH":8892,"BSTAR":1.807743e-5,"MEAN_MOTION_DOT":1.602e-5,"MEAN_MOTION_DDOT":0}]
